FENGYUN 1C DEB          
1 30357U 99025ABU 17345.92813840  .00000282  00000-0  20458-3 0  9992
2 30357  99.1381   3.3465 0050081 189.0904 288.6989 14.04125630557796
